IRIDIUM 7               
1 24793U 97020B   25052.98323804  .00000844  00000+0  28536-3 0  9996
2 24793  86.3947 225.1344 0002271  96.9188 263.2267 14.35773673455589
IRIDIUM 5               
1 24795U 97020D   25052.74460517  .00008404  00000+0  71864-3 0  9997
2 24795  86.3927 136.9129 0112327 191.3087 168.5617 14.92639394468237
IRIDIUM 4               
1 24796U 97020E   25052.96962492  .00000788  00000+0  26097-3 0  9996
2 24796  86.3949 222.0932 0002029  96.0827 264.0601 14.36683527455956
IRIDIUM 914             
1 24836U 97030A   25053.43228530  .00001079  00000+0  33206-3 0  9997
2 24836  86.3910 230.8480 0001115 144.4837 215.6437 14.40671623452706
IRIDIUM 16              
1 24841U 97030F   25053.49868628  .00000816  00000+0  26061-3 0  9996
2 24841  86.3979 253.4512 0004286  86.1294 274.0394 14.38527045450776
IRIDIUM 911             
1 24842U 97030G   25053.08931111  .00001090  00000+0  29161-3 0  9999
2 24842  86.4406 252.5121 0016009 117.7627 242.5202 14.47381197458419
IRIDIUM 17              
1 24870U 97034B   25052.71903356  .00000769  00000+0  24968-3 0  9995
2 24870  86.3922 283.3395 0003317  62.9723 297.1813 14.37643237446992
IRIDIUM 920             
1 24871U 97034C   25052.85020783  .00000751  00000+0  22579-3 0  9992
2 24871  86.3920 262.7553 0013565 100.5839 259.6889 14.41344383449962
